start=new Date('2021-08-28T00:00:00.000Z').valueOf();
sats=[{"APOAPSIS":"546.115","INCLINATION":"53.0558","EPOCH":"2021-08-27T17:33:24.106464","MEAN_ELEMENT_THEORY":"SGP4","OBJECT_ID":"2021-021X","TIME_SYSTEM":"UTC","GP_ID":"183556403","TLE_LINE1":"1 47881U 21021X   21239.73152901  .00001014  00000-0  85219-4 0  9994","OBJECT_TYPE":"PAYLOAD","SITE":"AFETR","COUNTRY_CODE":"US","MEAN_MOTION_DOT":"0.00001014","RA_OF_ASC_NODE":"150.9128","REF_FRAME":"TEME","MEAN_ANOMALY":"296.1805","ELEMENT_SET_NO":"999","PERIOD":"95.541","SEMIMAJOR_AXIS":"6922.861","ARG_OF_PERICENTER":"63.9390","ECCENTRICITY":"0.00020070","DECAY_DATE":null,"MEAN_MOTION_DDOT":"0.0000000000000","LAUNCH_DATE":"2021-03-14","CENTER_NAME":"EARTH","FILE":"3104038","RCS_SIZE":"LARGE","PERIAPSIS":"543.336","EPHEMERIS_TYPE":"0","TLE_LINE2":"2 47881  53.0558 150.9128 0002007  63.9390 296.1805 15.07212054 26579","BSTAR":"0.00008521900000","CLASSIFICATION_TYPE":"U","OBJECT_NAME":"STARLINK-2339","REV_AT_EPOCH":"2657","NORAD_CAT_ID":"47881","MEAN_MOTION":"15.07212054"},{"MEAN_MOTION_DDOT":"0.0000000000000","DECAY_DATE":null,"ECCENTRICITY":"0.00023300","BSTAR":"-0.00002145500000","TLE_LINE2":"2 47882  53.0551 143.2037 0002330  77.2146 282.9103 15.06398286 26848","RCS_SIZE":"LARGE","FILE":"3103885","CENTER_NAME":"EARTH","PERIAPSIS":"545.605","EPHEMERIS_TYPE":"0","LAUNCH_DATE":"2021-03-14","OBJECT_NAME":"STARLINK-2340","CLASSIFICATION_TYPE":"U","MEAN_MOTION":"15.06398286","NORAD_CAT_ID":"47882","REV_AT_EPOCH":"2684","TLE_LINE1":"1 47882U 21021Y   21239.24041743 -.00000601  00000-0 -21455-4 0  9997","GP_ID":"183529888","TIME_SYSTEM":"UTC","OBJECT_ID":"2021-021Y","MEAN_ELEMENT_THEORY":"SGP4","EPOCH":"2021-08-27T05:46:12.065952","INCLINATION":"53.0551","APOAPSIS":"548.832","COUNTRY_CODE":"US","SITE":"AFETR","OBJECT_TYPE":"PAYLOAD","RA_OF_ASC_NODE":"143.2037","REF_FRAME":"TEME","MEAN_MOTION_DOT":"-0.00000601","SEMIMAJOR_AXIS":"6925.354","ARG_OF_PERICENTER":"77.2146","PERIOD":"95.592","ELEMENT_SET_NO":"999","MEAN_ANOMALY":"282.9103"},{"TLE_LINE1":"1 47883U 21021Z   21239.47770565  .00001562  00000-0  12377-3 0  9991","GP_ID":"183557387","OBJECT_ID":"2021-021Z","TIME_SYSTEM":"UTC","MEAN_ELEMENT_THEORY":"SGP4","EPOCH":"2021-08-27T11:27:53.768160","APOAPSIS":"548.434","INCLINATION":"53.0579","COUNTRY_CODE":"US","SITE":"AFETR","OBJECT_TYPE":"PAYLOAD","RA_OF_ASC_NODE":"147.1337","REF_FRAME":"TEME","MEAN_MOTION_DOT":"0.00001562","SEMIMAJOR_AXIS":"6925.361","ARG_OF_PERICENTER":"80.5863","PERIOD":"95.592","ELEMENT_SET_NO":"999","MEAN_ANOMALY":"279.5324","MEAN_MOTION_DDOT":"0.0000000000000","DECAY_DATE":null,"ECCENTRICITY":"0.00017440","BSTAR":"0.00012377000000","TLE_LINE2":"2 47883  53.0579 147.1337 0001744  80.5863 279.5324 15.06395798 26815","FILE":"3104038","PERIAPSIS":"546.019","RCS_SIZE":"MEDIUM","CENTER_NAME":"EARTH","EPHEMERIS_TYPE":"0","LAUNCH_DATE":"2021-03-14","OBJECT_NAME":"STARLINK-2342","CLASSIFICATION_TYPE":"U","MEAN_MOTION":"15.06395798","NORAD_CAT_ID":"47883","REV_AT_EPOCH":"2681"},{"TLE_LINE2":"2 47884  53.0498 151.0518 0001754  60.2769 299.8394 15.06395250 26604","BSTAR":"-0.00004162900000","RCS_SIZE":"LARGE","FILE":"3104038","EPHEMERIS_TYPE":"0","PERIAPSIS":"546.013","CENTER_NAME":"EARTH","LAUNCH_DATE":"2021-03-14","MEAN_MOTION_DDOT":"0.0000000000000","DECAY_DATE":null,"ECCENTRICITY":"0.00017540","NORAD_CAT_ID":"47884","MEAN_MOTION":"15.06395250","REV_AT_EPOCH":"2660","OBJECT_NAME":"STARLINK-2343","CLASSIFICATION_TYPE":"U","COUNTRY_CODE":"US","OBJECT_TYPE":"PAYLOAD","SITE":"AFETR","GP_ID":"183556154","TLE_LINE1":"1 47884U 21021AA  21239.72604333 -.00000902  00000-0 -41629-4 0  9991","MEAN_ELEMENT_THEORY":"SGP4","OBJECT_ID":"2021-021AA","TIME_SYSTEM":"UTC","INCLINATION":"53.0498","APOAPSIS":"548.443","EPOCH":"2021-08-27T17:25:30.143712","PERIOD":"95.592","ARG_OF_PERICENTER":"60.2769","SEMIMAJOR_AXIS":"6925.363","ELEMENT_SET_NO":"999","MEAN_ANOMALY":"299.8394","MEAN_MOTION_DOT":"-0.00000902","RA_OF_ASC_NODE":"151.0518","REF_FRAME":"TEME"},{"CLASSIFICATION_TYPE":"U","OBJECT_NAME":"STARLINK-2344","REV_AT_EPOCH":"2662","MEAN_MOTION":"15.06397584","NORAD_CAT_ID":"47885","ECCENTRICITY":"0.00018240","DECAY_DATE":null,"MEAN_MOTION_DDOT":"0.0000000000000","LAUNCH_DATE":"2021-03-14","FILE":"3103885","PERIAPSIS":"545.958","RCS_SIZE":"LARGE","CENTER_NAME":"EARTH","EPHEMERIS_TYPE":"0","BSTAR":"0.00014201000000","TLE_LINE2":"2 47885  53.0545 158.1401 0001824  54.8894 305.2265 15.06397584 26626","RA_OF_ASC_NODE":"158.1401","REF_FRAME":"TEME","MEAN_MOTION_DOT":"0.00001834","MEAN_ANOMALY":"305.2265","ELEMENT_SET_NO":"999","SEMIMAJOR_AXIS":"6925.356","ARG_OF_PERICENTER":"54.8894","PERIOD":"95.592","EPOCH":"2021-08-27T06:08:05.929152","APOAPSIS":"548.484","INCLINATION":"53.0545","OBJECT_ID":"2021-021AB","TIME_SYSTEM":"UTC","MEAN_ELEMENT_THEORY":"SGP4","TLE_LINE1":"1 47885U 21021AB  21239.25562418  .00001834  00000-0  14201-3 0  9995","GP_ID":"183530138","SITE":"AFETR","OBJECT_TYPE":"PAYLOAD","COUNTRY_CODE":"US"},{"ECCENTRICITY":"0.00019290","MEAN_MOTION_DDOT":"0.0000000000000","DECAY_DATE":null,"LAUNCH_DATE":"2021-03-14","TLE_LINE2":"2 47886  53.0551 148.1409 0001929  69.9722 290.1475 15.06403129 26611","BSTAR":"0.00011542000000","FILE":"3103885","PERIAPSIS":"545.868","RCS_SIZE":"LARGE","CENTER_NAME":"EARTH","EPHEMERIS_TYPE":"0","CLASSIFICATION_TYPE":"U","OBJECT_NAME":"STARLINK-2345","NORAD_CAT_ID":"47886","MEAN_MOTION":"15.06403129","REV_AT_EPOCH":"2661","INCLINATION":"53.0551","APOAPSIS":"548.540","EPOCH":"2021-08-27T06:08:03.481440","GP_ID":"183530388","TLE_LINE1":"1 47886U 21021AC  21239.25559585  .00001438  00000-0  11542-3 0  9992","MEAN_ELEMENT_THEORY":"SGP4","OBJECT_ID":"2021-021AC","TIME_SYSTEM":"UTC","OBJECT_TYPE":"PAYLOAD","SITE":"AFETR","COUNTRY_CODE":"US","MEAN_MOTION_DOT":"0.00001438","RA_OF_ASC_NODE":"148.1409","REF_FRAME":"TEME","ELEMENT_SET_NO":"999","MEAN_ANOMALY":"290.1475","PERIOD":"95.592","SEMIMAJOR_AXIS":"6925.339","ARG_OF_PERICENTER":"69.9722"},{"RCS_SIZE":"LARGE","FILE":"3104038","EPHEMERIS_TYPE":"0","PERIAPSIS":"546.058","CENTER_NAME":"EARTH","TLE_LINE2":"2 47887  53.0571 150.9434 0001687  69.5678 290.5492 15.06395949 26613","BSTAR":"0.00014783000000","LAUNCH_DATE":"2021-03-14","DECAY_DATE":null,"MEAN_MOTION_DDOT":"0.0000000000000","ECCENTRICITY":"0.00016870","REV_AT_EPOCH":"2661","NORAD_CAT_ID":"47887","MEAN_MOTION":"15.06395949","OBJECT_NAME":"STARLINK-2346","CLASSIFICATION_TYPE":"U","COUNTRY_CODE":"US","OBJECT_TYPE":"PAYLOAD","SITE":"AFETR","MEAN_ELEMENT_THEORY":"SGP4","OBJECT_ID":"2021-021AD","TIME_SYSTEM":"UTC","GP_ID":"183557902","TLE_LINE1":"1 47887U 21021AD  21239.74448932  .00001921  00000-0  14783-3 0  9997","INCLINATION":"53.0571","APOAPSIS":"548.394","EPOCH":"2021-08-27T17:52:03.877248","PERIOD":"95.592","ARG_OF_PERICENTER":"69.5678","SEMIMAJOR_AXIS":"6925.361","ELEMENT_SET_NO":"999","MEAN_ANOMALY":"290.5492","MEAN_MOTION_DOT":"0.00001921","RA_OF_ASC_NODE":"150.9434","REF_FRAME":"TEME"},{"OBJECT_NAME":"STARLINK-2348","CLASSIFICATION_TYPE":"U","NORAD_CAT_ID":"47888","MEAN_MOTION":"15.06397719","REV_AT_EPOCH":"2671","MEAN_MOTION_DDOT":"0.0000000000000","DECAY_DATE":null,"ECCENTRICITY":"0.00023500","TLE_LINE2":"2 47888  53.0555 142.3283 0002350  77.9727 282.1525 15.06397719 26711","BSTAR":"0.00002638900000","FILE":"3104038","RCS_SIZE":"LARGE","PERIAPSIS":"545.593","EPHEMERIS_TYPE":"0","CENTER_NAME":"EARTH","LAUNCH_DATE":"2021-03-14","MEAN_MOTION_DOT":"0.00000111","RA_OF_ASC_NODE":"142.3283","REF_FRAME":"TEME","PERIOD":"95.592","ARG_OF_PERICENTER":"77.9727","SEMIMAJOR_AXIS":"6925.356","MEAN_ANOMALY":"282.1525","ELEMENT_SET_NO":"999","GP_ID":"183556669","TLE_LINE1":"1 47888U 21021AE  21239.43577046  .00000111  00000-0  26389-4 0  9999","MEAN_ELEMENT_THEORY":"SGP4","TIME_SYSTEM":"UTC","OBJECT_ID":"2021-021AE","INCLINATION":"53.0555","APOAPSIS":"548.848","EPOCH":"2021-08-27T10:27:30.567744","COUNTRY_CODE":"US","OBJECT_TYPE":"PAYLOAD","SITE":"AFETR"},{"DECAY_DATE":null,"MEAN_MOTION_DDOT":"0.0000000000000","ECCENTRICITY":"0.00022150","RCS_SIZE":"LARGE","FILE":"3103885","EPHEMERIS_TYPE":"0","PERIAPSIS":"545.674","CENTER_NAME":"EARTH","TLE_LINE2":"2 47889  53.0563 143.1737 0002215  75.4956 284.6279 15.06401681 26730","BSTAR":"0.00012131000000","LAUNCH_DATE":"2021-03-14","OBJECT_NAME":"STARLINK-2349","CLASSIFICATION_TYPE":"U","REV_AT_EPOCH":"2673","NORAD_CAT_ID":"47889","MEAN_MOTION":"15.06401681","MEAN_ELEMENT_THEORY":"SGP4","TIME_SYSTEM":"UTC","OBJECT_ID":"2021-021AF","GP_ID":"183529639","TLE_LINE1":"1 47889U 21021AF  21239.24778259  .00001526  00000-0  12131-3 0  9998","APOAPSIS":"548.742","INCLINATION":"53.0563","EPOCH":"2021-08-27T05:56:48.415776","COUNTRY_CODE":"US","OBJECT_TYPE":"PAYLOAD","SITE":"AFETR","MEAN_MOTION_DOT":"0.00001526","RA_OF_ASC_NODE":"143.1737","REF_FRAME":"TEME","PERIOD":"95.592","SEMIMAJOR_AXIS":"6925.343","ARG_OF_PERICENTER":"75.4956","ELEMENT_SET_NO":"999","MEAN_ANOMALY":"284.6279"},{"ECCENTRICITY":"0.00020570","MEAN_MOTION_DDOT":"0.0000000000000","DECAY_DATE":null,"LAUNCH_DATE":"2021-03-14","BSTAR":"0.00000896220000","TLE_LINE2":"2 47890  53.0557 152.1814 0002057  66.3308 293.7897 15.06401779 25627","FILE":"3104038","RCS_SIZE":"LARGE","EPHEMERIS_TYPE":"0","PERIAPSIS":"545.784","CENTER_NAME":"EARTH","CLASSIFICATION_TYPE":"U","OBJECT_NAME":"STARLINK-2350","MEAN_MOTION":"15.06401779","NORAD_CAT_ID":"47890","REV_AT_EPOCH":"2562","EPOCH":"2021-08-27T11:13:57.321120","APOAPSIS":"548.633","INCLINATION":"53.0557","TLE_LINE1":"1 47890U 21021AG  21239.46802455 -.00000148  00000-0  89622-5 0  9991","GP_ID":"183557670","TIME_SYSTEM":"UTC","OBJECT_ID":"2021-021AG","MEAN_ELEMENT_THEORY":"SGP4","SITE":"AFETR","OBJECT_TYPE":"PAYLOAD","COUNTRY_CODE":"US","REF_FRAME":"TEME","RA_OF_ASC_NODE":"152.1814","MEAN_MOTION_DOT":"-0.00000148","MEAN_ANOMALY":"293.7897","ELEMENT_SET_NO":"999","SEMIMAJOR_AXIS":"6925.343","ARG_OF_PERICENTER":"66.3308","PERIOD":"95.592"}];
